ISS (ZARYA)             
1 25544U 98067A   20131.56637809  .00000926  00000-0  24650-4 0  9999
2 25544  51.6440 174.6729 0001100 284.5652 186.3715 15.49362390226184
KESTREL EYE IIM (KE2M)  
1 42982U 98067NE  20131.30498526  .00010370  00000-0  92101-4 0  9997
2 42982  51.6339 115.9977 0003120 328.2649  31.8160 15.69202306145084
DELLINGR (RBLE)         
1 43021U 98067NJ  20131.56758190  .00010303  00000-0  89141-4 0  9992
2 43021  51.6352 113.3197 0000812 338.9559  21.1405 15.69852431140914
1KUNS-PF                
1 43466U 98067NP  20131.31082077  .00156131  21011-4  35040-3 0  9999
2 43466  51.6249  93.1576 0003932  80.9280 279.2174 15.97394413114416
UBAKUSAT                
1 43467U 98067NQ  20131.46231701  .00018970  00000-0  13612-3 0  9996
2 43467  51.6321 117.0068 0001146  41.8200 318.2887 15.73701244114124
CUBERRT                 
1 43546U 98067NU  20131.45294280  .00008581  00000-0  67896-4 0  9995
2 43546  51.6341 116.2206 0002908 330.8237  29.2599 15.72301590104269
TEMPEST-D               
1 43547U 98067NV  20131.48035952  .00003618  00000-0  46497-4 0  9998
2 43547  51.6354 143.5239 0004334 280.6114  79.4392 15.62057971103586
RAINCUBE                
1 43548U 98067NW  20131.21889155  .00019367  00000-0  14624-3 0  9996
2 43548  51.6325 125.8798 0003684 333.6788  26.4022 15.72476321104242
HALOSAT                 
1 43549U 98067NX  20131.45771643  .00014011  00000-0  10986-3 0  9993
2 43549  51.6344 125.2921 0003381 338.8219  21.2638 15.71872851103833
ENDUROSAT ONE           
1 43551U 98067NZ  20131.35028352  .00035167  00000-0  20272-3 0  9991
2 43551  51.6337 116.2238 0003977 356.8254   3.2721 15.78320398104351
EQUISAT                 
1 43552U 98067PA  20131.37596438  .00020151  00000-0  15132-3 0  9995
2 43552  51.6349 124.0351 0004412 338.6486  21.4327 15.72573696104212
RADSAT-G                
1 43553U 98067PB  20131.32164551  .00012435  00000-0  11310-3 0  9998
2 43553  51.6388 131.3264 0004584 319.5611  40.5044 15.68383258104168
1998-067PC              
1 43554U 98067PC  20131.23676561  .00041384  00000-0  21960-3 0  9995
2 43554  51.6307 114.6830 0004404   6.4418 353.6639 15.80074213103902
AEROCUBE 12A            
1 43556U 18046C   20131.54682611  .00000803  00000-0  39886-4 0  9991
2 43556  51.6424 287.6830 0008536 156.4650 203.6722 15.29709034101576
AEROCUBE 12B            
1 43557U 18046D   20131.53541697  .00000487  00000-0  29296-4 0  9991
2 43557  51.6423 288.3464 0008615 156.0667 204.0715 15.29435460101519
LEMUR-2-VU              
1 43558U 18046E   20131.47534375  .00001560  00000-0  63561-4 0  9996
2 43558  51.6414 285.0363 0007836 158.6186 201.5124 15.30898180101598
LEMUR-2-ALEXANDER       
1 43559U 18046F   20131.50827747  .00002637  00000-0  98634-4 0  9994
2 43559  51.6408 284.5186 0007913 159.2583 200.8720 15.31037801101380
LEMUR-2-YUASA           
1 43560U 18046G   20131.49284393  .00002707  00000-0  10156-3 0  9998
2 43560  51.6417 285.1464 0007952 172.3619 187.7484 15.30829956101599
LEMUR-2-TOMHENDERSON    
1 43561U 18046H   20131.56734281  .00002368  00000-0  90812-4 0  9994
2 43561  51.6412 284.8932 0008162 171.8514 188.2600 15.30655594101167
SIRIUSSAT-1             
1 43595U 98067PG  20131.48923035  .00022135  00000-0  16456-3 0  9995
2 43595  51.6312 126.1524 0002029 350.2120   9.8839 15.72748505 99046
SIRIUSSAT-2             
1 43596U 98067PH  20131.42135852  .00022635  00000-0  16890-3 0  9999
2 43596  51.6325 127.2710 0002153 339.8699  20.2214 15.72645198 99028
TANUSHA-3               
1 43597U 98067PJ  20131.43022964  .00052821  00000-0  26502-3 0  9991
2 43597  51.6291 116.6115 0003180  27.5089 332.6081 15.81195932 99160
1998-067PK              
1 43598U 98067PK  20131.39644121  .00054632  00000-0  25822-3 0  9998
2 43598  51.6284 115.6646 0003314  31.6077 328.5124 15.82469024 99173
1998-067PN              
1 43638U 98067PN  20131.37176476  .00007705  00000-0  87488-4 0  9990
2 43638  51.6346 144.2815 0001151 281.2610  78.8255 15.63431620 90717
1998-067PP              
1 43639U 98067PP  20131.32275893  .00013013  00000-0  12135-3 0  9994
2 43639  51.6345 137.2109 0002473 281.4049  78.6670 15.67716778 90815
STARS-ME                
1 43640U 98067PQ  20131.50418007  .00009110  00000-0  96587-4 0  9999
2 43640  51.6335 140.6321 0003006 260.7444  99.3212 15.64934846 90785
ISS DEB (SEDA-AP)       
1 43870U 98067PU  20131.38022734  .00002917  00000-0  45410-4 0  9995
2 43870  51.6400 157.1342 0003397 264.2991  95.7557 15.57595317 78728
CATSAT-2                
1 44029U 98067PV  20131.56815407  .00008962  00000-0  97974-4 0  9997
2 44029  51.6369 147.9145 0003979 322.2619  37.8096 15.64169249 72598
DELPHINI                
1 44030U 98067PW  20131.48058757  .00012557  00000-0  13054-3 0  9998
2 44030  51.6330 147.2344 0003900 324.4157  35.6577 15.65019059 72568
UNITE                   
1 44031U 98067PX  20131.34538580  .00006350  00000-0  81101-4 0  9994
2 44031  51.6357 153.8905 0002796 312.9178  47.1580 15.60697655 72461
CATSAT-1                
1 44033U 98067PZ  20131.56803283  .00009488  00000-0  10338-3 0  9993
2 44033  51.6369 147.9199 0003799 320.8491  39.2228 15.64171304 72503
ISS DEB                 
1 44303U 98067QA  20131.40483417  .00002341  00000-0  42692-4 0  9999
2 44303  51.6401 168.6154 0005099 181.7336 178.3637 15.54072718 53841
ISS DEB                 
1 44304U 98067QB  20131.33158327  .00010822  00000-0  13532-3 0  9994
2 44304  51.6376 162.1269 0003339 156.7087 203.4058 15.60398553 53931
ISS DEB                 
1 44305U 98067QC  20131.35052722  .00015797  00000-0  17857-3 0  9999
2 44305  51.6338 159.1386 0001943 267.8679  92.2092 15.62640309 53973
ISS DEB                 
1 44306U 98067QD  20131.42674435  .00002832  00000-0  50073-4 0  9993
2 44306  51.6389 168.7151 0006367 178.9995 181.1010 15.54098698 53858
RAAVANA-1               
1 44329U 98067QE  20131.33866832  .00005956  00000-0  86806-4 0  9995
2 44329  51.6370 165.1433 0004967 222.0532 138.0079 15.57256334 51062
UGUISU                  
1 44330U 98067QF  20131.34927853  .00006153  00000-0  89677-4 0  9998
2 44330  51.6372 165.2097 0004982 220.2939 139.7684 15.57185812 51041
NEPALISAT-1             
1 44331U 98067QG  20131.52426313  .00006085  00000-0  88429-4 0  9992
2 44331  51.6374 164.1319 0005008 224.9145 135.1443 15.57289103 51084
SPOOQY-1                
1 44332U 98067QH  20131.39719612  .00005785  00000-0  84666-4 0  9990
2 44332  51.6374 164.7803 0003989 227.6779 132.3875 15.57203940 51025
PINOT                   
1 44364U 98067QJ  20131.39641697  .00002800  00000-0  49960-4 0  9995
2 44364  51.6486 169.2793 0007088 180.7886 179.3092 15.53888223 49426
IOD-1 GEMS              
1 44385U 98067QK  20131.37300666  .00010468  00000-0  13734-3 0  9992
2 44385  51.6385 163.9137 0001382 158.0974 202.0078 15.59159107 48545
SWIATOWID               
1 44426U 98067QL  20131.43103054  .00015261  00000-0  19198-3 0  9993
2 44426  51.6406 163.2544 0001768 149.9443 343.8412 15.59870365 48573
KRAKSAT                 
1 44427U 98067QM  20131.39144709  .00005652  00000-0  88149-4 0  9997
2 44427  51.6419 167.5164 0003205 158.9085 324.1085 15.55496387 48553
VCC A                   
1 44428U 98067QN  20131.31619687  .00005938  00000-0  88465-4 0  9990
2 44428  51.6389 166.5298 0001720 186.1863 173.9107 15.56654178 48565
ENTRYSAT                
1 44429U 98067QP  20131.37242261  .00007442  00000-0  10577-3 0  9997
2 44429  51.6376 165.3850 0001408 169.0356 191.0667 15.57508961 48586
VCC C                   
1 44430U 98067QQ  20131.37225631  .00009285  00000-0  12543-3 0  9993
2 44430  51.6368 164.6447 0000992 193.6832 166.4134 15.58537352 47426
VCC B                   
1 44431U 98067QR  20131.31679173  .00006062  00000-0  90067-4 0  9990
2 44431  51.6379 166.5229 0001858 185.2277 174.8696 15.56687320 48505
ISS DEB                 
1 44788U 98067QT  20131.41039990  .00011726  00000-0  18024-3 0  9998
2 44788  51.6408 171.6212 0004018 216.7670 143.2693 15.54713993 27474
ISS DEB                 
1 44789U 98067QU  20131.37197095  .00012267  00000-0  19047-3 0  9992
2 44789  51.6424 172.1358 0005650 218.8514 141.1764 15.54379407 27455
RWASAT-1                
1 44790U 98067QV  20131.45689682 -.00000474  00000-0  00000+0 0  9994
2 44790  51.6429 172.4028 0007559 248.0956 246.3632 15.52467581 26724
AQT-D                   
1 44791U 98067QW  20131.40018879  .00000182  00000-0  10553-4 0  9998
2 44791  51.6427 173.0604 0001883 203.4660 156.6244 15.52031693 26713
NARSSCUBE-1             
1 44792U 98067QX  20131.54695376  .00004674  00000-0  80708-4 0  9996
2 44792  51.6393 171.7884 0004689 234.0869 125.9686 15.53086936 26742
PROGRESS-MS 13          
1 44833U 19085A   20131.56637809  .00000926  00000-0  24650-4 0  9994
2 44833  51.6440 174.6729 0001100 284.5652 186.3715 15.49362390226186
STPSAT-4                
1 45043U 98067QY  20131.58879727  .00002325  00000-0  49125-4 0  9993
2 45043  51.6488 174.2948 0005081 224.1229 135.9351 15.49749112 15951
CYGNUS NG-13            
1 45175U 20011A   20131.56637809  .00000926  00000-0  24650-4 0  9995
2 45175  51.6440 174.6729 0001100 284.5652 186.3715 15.49362390226186
HARP                    
1 45256U 98067QZ  20131.42185660  .00002668  00000-0  53361-4 0  9995
2 45256  51.6409 174.6986 0006978 216.6911 143.3601 15.50756185 12606
1998-067RA              
1 45257U 98067RA  20131.54927573  .00002888  00000-0  57173-4 0  9995
2 45257  51.6405 174.0483 0007625 221.1014 138.9402 15.50716420 12623
PHOENIX                 
1 45258U 98067RB  20131.55315113  .00002703  00000-0  54240-4 0  9996
2 45258  51.6406 174.0707 0005743 199.6058 160.4711 15.50591590 12598
1998-067RC              
1 45259U 98067RC  20131.54596125  .00004109  00000-0  77390-4 0  9993
2 45259  51.6404 174.0258 0006799 219.8205 140.2286 15.50943230 12628
CRYOCUBE                
1 45260U 98067RD  20131.53821638  .00004337  00000-0  80866-4 0  9999
2 45260  51.6404 173.9746 0007586 218.5518 141.4930 15.51079355 12637
1998-067RE              
1 45261U 98067RE  20131.53319788  .00005106  00000-0  93085-4 0  9990
2 45261  51.6401 173.9411 0007277 220.0223 140.0231 15.51300780 12629
RADSAT-U                
1 45262U 98067RF  20131.54701475  .00003007  00000-0  59114-4 0  9993
2 45262  51.6408 174.0354 0006559 257.7636 102.2619 15.50763243 12639
QARMAN                  
1 45263U 98067RG  20131.42510181  .00004099  00000-0  77771-4 0  9994
2 45263  51.6404 174.7179 0006847 215.7231 144.3301 15.50740842 12638
SORTIE                  
1 45264U 98067RH  20131.43568228  .00002002  00000-0  42670-4 0  9993
2 45264  51.6413 174.7900 0007275 224.6854 135.3549 15.50291895 12607
ICS-EF (ISS DEB)        
1 45265U 98067RJ  20131.53010165  .00001304  00000-0  31239-4 0  9990
2 45265  51.6426 174.6657 0005120 225.7766 134.2803 15.49606741 12295
SOYUZ-MS 16             
1 45476U 20023A   20131.56637809  .00000926  00000-0  24650-4 0  9992
2 45476  51.6440 174.6729 0001100 284.5652 186.3715 15.49362390226180
PROGRESS-MS 14          
1 45595U 20026A   20131.56637809  .00000926  00000-0  24650-4 0  9997
2 45595  51.6440 174.6729 0001100 284.5652 186.3715 15.49362390226182
G-SAT                   
1 45597U 98067RK  20123.49895774  .00004824  00000-0  91945-4 0  9991
2 45597  51.6438 214.5758 0004614 248.6471 207.2016 15.50160417   736
QUETZAL-1               
1 45598U 98067RL  20123.49846198  .00008475  00000-0  15720-3 0  9990
2 45598  51.6450 214.5908 0002193 263.8257 183.8606 15.49834326   660
